OBJECT_NAME,OBJECT_ID,EPOCH,MEAN_MOTION,ECCENTRICITY,INCLINATION,RA_OF_ASC_NODE,ARG_OF_PERICENTER,MEAN_ANOMALY,EPHEMERIS_TYPE,CLASSIFICATION_TYPE,NORAD_CAT_ID,ELEMENT_SET_NO,REV_AT_EPOCH,BSTAR,MEAN_MOTION_DOT,MEAN_MOTION_DDOT
STARLINK-37618,2026-115T,2026-06-09T05:50:50.896896,15.80915329,.00008518,97.2834,177.3045,58.6951,301.4401,0,U,69228,999,343,.13036465E-2,.258274E-2,0
STARLINK-37679,2026-115U,2026-06-09T05:52:58.641888,15.80890387,.00013256,97.2832,177.3024,94.7289,265.4130,0,U,69229,999,343,.10429317E-2,.20509E-2,0
STARLINK-37746,2026-115V,2026-06-09T05:55:10.887456,15.80906770,.00007043,97.2831,177.3001,120.2038,239.9300,0,U,69230,999,343,.11540909E-2,.227732E-2,0
STARLINK-37557,2026-115W,2026-06-08T19:12:46.623168,15.80809550,.00012421,97.2839,176.8365,118.7157,241.4236,0,U,69231,999,336,.35782992E-2,.747196E-2,0
STARLINK-37745,2026-115X,2026-06-09T05:44:46.350240,15.80897904,.00010487,97.2836,177.3104,89.9885,270.1503,0,U,69232,999,343,.97819312E-3,.192128E-2,0
STARLINK-37739,2026-115Y,2026-06-09T06:00:02.999808,15.78531312,.00013166,97.2838,177.3074,78.8106,309.3190,0,U,69233,999,341,-.17073485E-1,-.2523558E-1,0
STARLINK-37755,2026-115Z,2026-06-09T06:00:02.999808,15.75192419,.00014441,97.2845,177.2857,90.6961,244.6297,0,U,69234,999,341,-.28788095E-3,-.42859E-3,0
TJS-24,2026-116A,2026-06-09T06:55:12.823104,1.00270761,.00006711,0.0263,246.0778,173.9782,31.7218,0,U,69235,999,15,0,-.214E-5,0
STARLINK-37665,2026-117A,2026-06-09T06:00:02.999808,15.81945769,.00006116,53.1589,283.4648,71.6568,86.9923,0,U,69238,999,289,.484863E-3,.101044E-2,0
STARLINK-37558,2026-117B,2026-06-09T06:00:02.999808,15.81943007,.00008587,53.1589,283.4537,79.4202,84.6456,0,U,69239,999,289,.49722408E-3,.103656E-2,0
STARLINK-37680,2026-117C,2026-06-09T06:00:02.999808,15.81934429,.00010918,53.1591,283.4364,81.5621,90.7084,0,U,69240,999,288,.6114208E-3,.127936E-2,0
STARLINK-37742,2026-117D,2026-06-09T06:00:02.999808,15.81959396,.00005483,53.1594,283.4159,61.4172,121.0265,0,U,69241,999,289,.28241721E-3,.58303E-3,0
STARLINK-37718,2026-117E,2026-06-09T06:00:02.999808,15.81959033,.00010781,53.1592,283.4006,93.3966,96.0776,0,U,69242,999,288,.36299958E-3,.7529E-3,0
STARLINK-37735,2026-117F,2026-06-09T06:00:02.999808,15.81961040,.00010945,53.1594,283.3993,96.7728,93.3028,0,U,69243,999,289,.29334181E-3,.60607E-3,0
STARLINK-37757,2026-117G,2026-06-09T06:00:02.999808,15.81973434,.00006121,53.1593,283.3712,112.6923,91.0285,0,U,69244,999,289,.21097152E-3,.43326E-3,0
STARLINK-37767,2026-117H,2026-06-09T06:00:02.999808,15.81964022,.00009482,53.1590,283.3207,102.4743,125.5524,0,U,69245,999,289,.29026969E-3,.59969E-3,0
STARLINK-35759,2026-117J,2026-06-09T06:00:02.999808,15.81992946,.00005479,53.1588,283.3127,101.7244,130.1884,0,U,69246,999,294,.14547774E-3,.29635E-3,0
STARLINK-37238,2026-117K,2026-06-09T06:00:02.999808,15.81950668,.00010311,53.1582,283.2592,81.2840,175.9883,0,U,69247,999,289,.26676005E-3,.54988E-3,0
STARLINK-37412,2026-117L,2026-06-09T06:00:02.999808,15.82205865,.00014148,53.1579,283.2204,93.2691,183.0704,0,U,69248,999,296,-.16100181E-2,-.32641E-2,0
STARLINK-37398,2026-117M,2026-06-09T06:00:02.999808,15.83526399,.00003618,53.1574,283.2147,73.1508,205.7077,0,U,69249,999,296,-.38752838E-2,-.79193E-2,0
STARLINK-37499,2026-117N,2026-06-09T06:00:02.999808,15.82334659,.00012294,53.1576,283.1995,77.6839,208.3802,0,U,69250,999,296,-.25796798E-2,-.514619E-2,0
STARLINK-37489,2026-117P,2026-06-09T06:00:02.999808,15.82617210,.00007954,53.1579,283.1792,107.8577,188.0633,0,U,69251,999,296,-.4464257E-2,-.866233E-2,0
STARLINK-37434,2026-117Q,2026-06-09T06:00:02.999808,15.83965946,.00009334,53.1568,283.1466,81.3429,230.2313,0,U,69252,999,289,-.96979542E-2,-.1930538E-1,0
STARLINK-37368,2026-117R,2026-06-09T06:00:02.999808,15.85756057,.00007309,53.1560,283.0757,72.8735,272.8464,0,U,69253,999,296,-.89752556E-2,-.1946727E-1,0
STARLINK-37517,2026-117S,2026-06-09T06:00:02.999808,15.85989563,.00005624,53.1559,283.0621,80.1792,272.2655,0,U,69254,999,296,-.88167402E-2,-.1935897E-1,0
STARLINK-37378,2026-117T,2026-06-09T06:00:02.999808,15.85769100,.00006349,53.1560,283.0561,76.3066,278.8530,0,U,69255,999,288,-.91003337E-2,-.1971231E-1,0
STARLINK-37396,2026-117U,2026-06-09T06:00:02.999808,15.86129148,.00008294,53.1558,283.0287,81.0923,286.9364,0,U,69256,999,296,-.9053226E-2,-.1992963E-1,0
STARLINK-37508,2026-117V,2026-06-09T06:00:02.999808,15.86226145,.00005214,53.1556,283.0101,95.0579,281.7015,0,U,69257,999,288,-.78389071E-2,-.1728119E-1,0
STARLINK-37276,2026-117W,2026-06-09T06:00:02.999808,15.93870530,.00011091,53.1549,282.8412,59.8084,37.8284,0,U,69258,999,288,-.53146228E-2,-.1977446E-1,.10856139E-2
