STARLINK-37618          
1 69228U 26115T   26160.24364464  .00258274  00000+0  13036-2 0  9992
2 69228  97.2834 177.3045 0000851  58.6951 301.4401 15.80915329  3433
STARLINK-37679          
1 69229U 26115U   26160.24512317  .00205090  00000+0  10429-2 0  9996
2 69229  97.2832 177.3024 0001325  94.7289 265.4130 15.80890387  3435
STARLINK-37746          
1 69230U 26115V   26160.24665379  .00227732  00000+0  11541-2 0  9998
2 69230  97.2831 177.3001 0000704 120.2038 239.9300 15.80906770  3437
STARLINK-37557          
1 69231U 26115W   26159.80053962  .00747196  00000+0  35783-2 0  9993
2 69231  97.2839 176.8365 0001242 118.7157 241.4236 15.80809550  3361
STARLINK-37745          
1 69232U 26115X   26160.23942535  .00192128  00000+0  97819-3 0  9994
2 69232  97.2836 177.3104 0001048  89.9885 270.1503 15.80897904  3431
STARLINK-37739          
1 69233U 26115Y   26160.25003472 -.02523558  00000+0 -17073-1 0  9996
2 69233  97.2838 177.3074 0001316  78.8106 309.3190 15.78531312  3411
STARLINK-37755          
1 69234U 26115Z   26160.25003472 -.00042859  00000+0 -28788-3 0  9992
2 69234  97.2845 177.2857 0001444  90.6961 244.6297 15.75192419  3418
TJS-24                  
1 69235U 26116A   26160.28834286 -.00000214  00000+0  00000+0 0  9993
2 69235   0.0263 246.0778 0000671 173.9782  31.7218  1.00270761   155
STARLINK-37665          
1 69238U 26117A   26160.25003472  .00101044  00000+0  48486-3 0  9995
2 69238  53.1589 283.4648 0000611  71.6568  86.9923 15.81945769  2898
STARLINK-37558          
1 69239U 26117B   26160.25003472  .00103656  00000+0  49722-3 0  9991
2 69239  53.1589 283.4537 0000858  79.4202  84.6456 15.81943007  2899
STARLINK-37680          
1 69240U 26117C   26160.25003472  .00127936  00000+0  61142-3 0  9990
2 69240  53.1591 283.4364 0001091  81.5621  90.7084 15.81934429  2883
STARLINK-37742          
1 69241U 26117D   26160.25003472  .00058303  00000+0  28242-3 0  9996
2 69241  53.1594 283.4159 0000548  61.4172 121.0265 15.81959396  2893
STARLINK-37718          
1 69242U 26117E   26160.25003472  .00075290  00000+0  36300-3 0  9995
2 69242  53.1592 283.4006 0001078  93.3966  96.0776 15.81959033  2882
STARLINK-37735          
1 69243U 26117F   26160.25003472  .00060607  00000+0  29334-3 0  9991
2 69243  53.1594 283.3993 0001094  96.7728  93.3028 15.81961040  2892
STARLINK-37757          
1 69244U 26117G   26160.25003472  .00043326  00000+0  21097-3 0  9999
2 69244  53.1593 283.3712 0000612 112.6923  91.0285 15.81973434  2891
STARLINK-37767          
1 69245U 26117H   26160.25003472  .00059969  00000+0  29027-3 0  9991
2 69245  53.1590 283.3207 0000948 102.4743 125.5524 15.81964022  2899
STARLINK-35759          
1 69246U 26117J   26160.25003472  .00029635  00000+0  14548-3 0  9991
2 69246  53.1588 283.3127 0000547 101.7244 130.1884 15.81992946  2944
STARLINK-37238          
1 69247U 26117K   26160.25003472  .00054988  00000+0  26676-3 0  9996
2 69247  53.1582 283.2592 0001031  81.2840 175.9883 15.81950668  2892
STARLINK-37412          
1 69248U 26117L   26160.25003472 -.00326410  00000+0 -16100-2 0  9991
2 69248  53.1579 283.2204 0001414  93.2691 183.0704 15.82205865  2964
STARLINK-37398          
1 69249U 26117M   26160.25003472 -.00791930  00000+0 -38753-2 0  9993
2 69249  53.1574 283.2147 0000361  73.1508 205.7077 15.83526399  2964
STARLINK-37499          
1 69250U 26117N   26160.25003472 -.00514619  00000+0 -25797-2 0  9996
2 69250  53.1576 283.1995 0001229  77.6839 208.3802 15.82334659  2968
STARLINK-37489          
1 69251U 26117P   26160.25003472 -.00866233  00000+0 -44643-2 0  9990
2 69251  53.1579 283.1792 0000795 107.8577 188.0633 15.82617210  2962
STARLINK-37434          
1 69252U 26117Q   26160.25003472 -.01930538  00000+0 -96980-2 0  9993
2 69252  53.1568 283.1466 0000933  81.3429 230.2313 15.83965946  2895
STARLINK-37368          
1 69253U 26117R   26160.25003472 -.01946727  00000+0 -89753-2 0  9991
2 69253  53.1560 283.0757 0000730  72.8735 272.8464 15.85756057  2960
STARLINK-37517          
1 69254U 26117S   26160.25003472 -.01935897  00000+0 -88167-2 0  9996
2 69254  53.1559 283.0621 0000562  80.1792 272.2655 15.85989563  2963
STARLINK-37378          
1 69255U 26117T   26160.25003472 -.01971231  00000+0 -91003-2 0  9992
2 69255  53.1560 283.0561 0000634  76.3066 278.8530 15.85769100  2888
STARLINK-37396          
1 69256U 26117U   26160.25003472 -.01992963  00000+0 -90532-2 0  9994
2 69256  53.1558 283.0287 0000829  81.0923 286.9364 15.86129148  2969
STARLINK-37508          
1 69257U 26117V   26160.25003472 -.01728119  00000+0 -78389-2 0  9991
2 69257  53.1556 283.0101 0000521  95.0579 281.7015 15.86226145  2886
STARLINK-37276          
1 69258U 26117W   26160.25003472 -.01977446  10856-2 -53146-2 0  9998
2 69258  53.1549 282.8412 0001109  59.8084  37.8284 15.93870530  2882
